<gpx xmlns:ns3="http://www.garmin.com/xmlschemas/TrackPointExtension/v1" xmlns="http://www.topografix.com/GPX/1/1" xmlns:xsi="http://www.w3.org/2001/XMLSchema-instance" xmlns:ns2="http://www.garmin.com/xmlschemas/GpxExtensions/v3" creator="Garmin Connect" version="1.1" xsi:schemaLocation="http://www.topografix.com/GPX/1/1 http://www.topografix.com/GPX/11.xsd">
  <extensions>
<distance>828.36</distance>
<average_hr>115.0</average_hr>
<average_speed>0.9580000042915344</average_speed>
<start_time>2026-10-06T03:22:35+00:00</start_time>
<end_time>2026-10-06T03:36:59.240000+00:00</end_time>
<moving_time>851.0</moving_time>
<elapsed_time>864.24</elapsed_time>
</extensions>
<metadata>
    <link href="connect.garmin.com">
      <text>Garmin Connect</text>
    </link>
    <time>2026-10-06T03:22:35.000Z</time>
  </metadata>
  <trk>
    <name>杭州市 皮划艇</name>
    <type>kayaking_v2</type>
    <trkseg>
      <trkpt lat="29.60102339275181293487548828125" lon="119.1158038191497325897216796875">
        <ele>107.1999969482421875</ele>
        <time>2026-10-06T03:22:35.000Z</time>
        <extensions>
          <ns3:TrackPointExtension>
            <ns3:hr>117</ns3:hr>
          </ns3:TrackPointExtension>
        </extensions>
      </trkpt>
      <trkpt lat="29.60100512020289897918701171875" lon="119.1157972812652587890625">
        <ele>107.1999969482421875</ele>
        <time>2026-10-06T03:22:36.000Z</time>
        <extensions>
          <ns3:TrackPointExtension>
            <ns3:hr>117</ns3:hr>
          </ns3:TrackPointExtension>
        </extensions>
      </trkpt>
      <trkpt lat="29.600956253707408905029296875" lon="119.1157981194555759429931640625">
        <ele>107</ele>
        <time>2026-10-06T03:22:45.000Z</time>
        <extensions>
          <ns3:TrackPointExtension>
            <ns3:hr>118</ns3:hr>
          </ns3:TrackPointExtension>
        </extensions>
      </trkpt>
      <trkpt lat="29.60090990178287029266357421875" lon="119.11580239422619342803955078125">
        <ele>106.8000030517578125</ele>
        <time>2026-10-06T03:22:53.000Z</time>
        <extensions>
          <ns3:TrackPointExtension>
            <ns3:hr>120</ns3:hr>
          </ns3:TrackPointExtension>
        </extensions>
      </trkpt>
      <trkpt lat="29.6008548326790332794189453125" lon="119.115812368690967559814453125">
        <ele>107</ele>
        <time>2026-10-06T03:23:00.000Z</time>
        <extensions>
          <ns3:TrackPointExtension>
            <ns3:hr>114</ns3:hr>
          </ns3:TrackPointExtension>
        </extensions>
      </trkpt>
      <trkpt lat="29.600845277309417724609375" lon="119.1158118657767772674560546875">
        <ele>107</ele>
        <time>2026-10-06T03:23:01.000Z</time>
        <extensions>
          <ns3:TrackPointExtension>
            <ns3:hr>108</ns3:hr>
          </ns3:TrackPointExtension>
        </extensions>
      </trkpt>
      <trkpt lat="29.6008394099771976470947265625" lon="119.11581278778612613677978515625">
        <ele>106.8000030517578125</ele>
        <time>2026-10-06T03:23:02.000Z</time>
        <extensions>
          <ns3:TrackPointExtension>
            <ns3:hr>99</ns3:hr>
          </ns3:TrackPointExtension>
        </extensions>
      </trkpt>
      <trkpt lat="29.60082851350307464599609375" lon="119.11581345833837985992431640625">
        <ele>106.8000030517578125</ele>
        <time>2026-10-06T03:23:03.000Z</time>
        <extensions>
          <ns3:TrackPointExtension>
            <ns3:hr>86</ns3:hr>
          </ns3:TrackPointExtension>
        </extensions>
      </trkpt>
      <trkpt lat="29.60082038305699825286865234375" lon="119.11581513471901416778564453125">
        <ele>106.8000030517578125</ele>
        <time>2026-10-06T03:23:04.000Z</time>
        <extensions>
          <ns3:TrackPointExtension>
            <ns3:hr>74</ns3:hr>
          </ns3:TrackPointExtension>
        </extensions>
      </trkpt>
      <trkpt lat="29.6008082292973995208740234375" lon="119.115813039243221282958984375">
        <ele>106.8000030517578125</ele>
        <time>2026-10-06T03:23:05.000Z</time>
        <extensions>
          <ns3:TrackPointExtension>
            <ns3:hr>69</ns3:hr>
          </ns3:TrackPointExtension>
        </extensions>
      </trkpt>
      <trkpt lat="29.6007924713194370269775390625" lon="119.1158081777393817901611328125">
        <ele>106.8000030517578125</ele>
        <time>2026-10-06T03:23:07.000Z</time>
        <extensions>
          <ns3:TrackPointExtension>
            <ns3:hr>66</ns3:hr>
          </ns3:TrackPointExtension>
        </extensions>
      </trkpt>
      <trkpt lat="29.6007723547518253326416015625" lon="119.1158175654709339141845703125">
        <ele>106.8000030517578125</ele>
        <time>2026-10-06T03:23:09.000Z</time>
        <extensions>
          <ns3:TrackPointExtension>
            <ns3:hr>65</ns3:hr>
          </ns3:TrackPointExtension>
        </extensions>
      </trkpt>
      <trkpt lat="29.6006979234516620635986328125" lon="119.11581614054739475250244140625">
        <ele>106.59999847412109375</ele>
        <time>2026-10-06T03:23:17.000Z</time>
        <extensions>
          <ns3:TrackPointExtension>
            <ns3:hr>64</ns3:hr>
          </ns3:TrackPointExtension>
        </extensions>
      </trkpt>
      <trkpt lat="29.6006496436893939971923828125" lon="119.1158202476799488067626953125">
        <ele>106.59999847412109375</ele>
        <time>2026-10-06T03:23:23.000Z</time>
        <extensions>
          <ns3:TrackPointExtension>
            <ns3:hr>68</ns3:hr>
          </ns3:TrackPointExtension>
        </extensions>
      </trkpt>
      <trkpt lat="29.60064033977687358856201171875" lon="119.1158272884786128997802734375">
        <ele>106.59999847412109375</ele>
        <time>2026-10-06T03:23:24.000Z</time>
        <extensions>
          <ns3:TrackPointExtension>
            <ns3:hr>69</ns3:hr>
          </ns3:TrackPointExtension>
        </extensions>
      </trkpt>
      <trkpt lat="29.60062139667570590972900390625" lon="119.1158336587250232696533203125">
        <ele>106.59999847412109375</ele>
        <time>2026-10-06T03:23:26.000Z</time>
        <extensions>
          <ns3:TrackPointExtension>
            <ns3:hr>74</ns3:hr>
          </ns3:TrackPointExtension>
        </extensions>
      </trkpt>
      <trkpt lat="29.6006077341735363006591796875" lon="119.11583843640983104705810546875">
        <ele>106.59999847412109375</ele>
        <time>2026-10-06T03:23:27.000Z</time>
        <extensions>
          <ns3:TrackPointExtension>
            <ns3:hr>77</ns3:hr>
          </ns3:TrackPointExtension>
        </extensions>
      </trkpt>
      <trkpt lat="29.60057730786502361297607421875" lon="119.115855954587459564208984375">
        <ele>106.8000030517578125</ele>
        <time>2026-10-06T03:23:30.000Z</time>
        <extensions>
          <ns3:TrackPointExtension>
            <ns3:hr>80</ns3:hr>
          </ns3:TrackPointExtension>
        </extensions>
      </trkpt>
      <trkpt lat="29.60054294206202030181884765625" lon="119.11587196402251720428466796875">
        <ele>106.8000030517578125</ele>
        <time>2026-10-06T03:23:34.000Z</time>
        <extensions>
          <ns3:TrackPointExtension>
            <ns3:hr>81</ns3:hr>
          </ns3:TrackPointExtension>
        </extensions>
      </trkpt>
      <trkpt lat="29.60045308806002140045166015625" lon="119.1159090958535671234130859375">
        <ele>106.59999847412109375</ele>
        <time>2026-10-06T03:23:43.000Z</time>
        <extensions>
          <ns3:TrackPointExtension>
            <ns3:hr>77</ns3:hr>
          </ns3:TrackPointExtension>
        </extensions>
      </trkpt>
      <trkpt lat="29.60043196566402912139892578125" lon="119.11591823212802410125732421875">
        <ele>106.59999847412109375</ele>
        <time>2026-10-06T03:23:45.000Z</time>
        <extensions>
          <ns3:TrackPointExtension>
            <ns3:hr>75</ns3:hr>
          </ns3:TrackPointExtension>
        </extensions>
      </trkpt>
      <trkpt lat="29.600339345633983612060546875" lon="119.1159553639590740203857421875">
        <ele>106.40000152587890625</ele>
        <time>2026-10-06T03:23:55.000Z</time>
        <extensions>
          <ns3:TrackPointExtension>
            <ns3:hr>77</ns3:hr>
          </ns3:TrackPointExtension>
        </extensions>
      </trkpt>
      <trkpt lat="29.600287713110446929931640625" lon="119.11597221158444881439208984375">
        <ele>106.40000152587890625</ele>
        <time>2026-10-06T03:24:00.000Z</time>
        <extensions>
          <ns3:TrackPointExtension>
            <ns3:hr>74</ns3:hr>
          </ns3:TrackPointExtension>
        </extensions>
      </trkpt>
      <trkpt lat="29.60025988519191741943359375" lon="119.1159771569073200225830078125">
        <ele>106.40000152587890625</ele>
        <time>2026-10-06T03:24:03.000Z</time>
        <extensions>
          <ns3:TrackPointExtension>
            <ns3:hr>73</ns3:hr>
          </ns3:TrackPointExtension>
        </extensions>
      </trkpt>
      <trkpt lat="29.6002318896353244781494140625" lon="119.1159836947917938232421875">
        <ele>106.40000152587890625</ele>
        <time>2026-10-06T03:24:06.000Z</time>
        <extensions>
          <ns3:TrackPointExtension>
            <ns3:hr>79</ns3:hr>
          </ns3:TrackPointExtension>
        </extensions>
      </trkpt>
      <trkpt lat="29.60021562874317169189453125" lon="119.11598444916307926177978515625">
        <ele>106.40000152587890625</ele>
        <time>2026-10-06T03:24:08.000Z</time>
        <extensions>
          <ns3:TrackPointExtension>
            <ns3:hr>83</ns3:hr>
          </ns3:TrackPointExtension>
        </extensions>
      </trkpt>
      <trkpt lat="29.60019039921462535858154296875" lon="119.1159852035343647003173828125">
        <ele>106.1999969482421875</ele>
        <time>2026-10-06T03:24:11.000Z</time>
        <extensions>
          <ns3:TrackPointExtension>
            <ns3:hr>86</ns3:hr>
          </ns3:TrackPointExtension>
        </extensions>
      </trkpt>
      <trkpt lat="29.6001691929996013641357421875" lon="119.1159863770008087158203125">
        <ele>106.1999969482421875</ele>
        <time>2026-10-06T03:24:13.000Z</time>
        <extensions>
          <ns3:TrackPointExtension>
            <ns3:hr>88</ns3:hr>
          </ns3:TrackPointExtension>
        </extensions>
      </trkpt>
      <trkpt lat="29.600115381181240081787109375" lon="119.11598595790565013885498046875">
        <ele>106.1999969482421875</ele>
        <time>2026-10-06T03:24:20.000Z</time>
        <extensions>
          <ns3:TrackPointExtension>
            <ns3:hr>91</ns3:hr>
          </ns3:TrackPointExtension>
        </extensions>
      </trkpt>
      <trkpt lat="29.60009518079459667205810546875" lon="119.1159882210195064544677734375">
        <ele>106.1999969482421875</ele>
        <time>2026-10-06T03:24:23.000Z</time>
        <extensions>
          <ns3:TrackPointExtension>
            <ns3:hr>96</ns3:hr>
          </ns3:TrackPointExtension>
        </extensions>
      </trkpt>
      <trkpt lat="29.60008093155920505523681640625" lon="119.115986712276935577392578125">
        <ele>106.1999969482421875</ele>
        <time>2026-10-06T03:24:25.000Z</time>
        <extensions>
          <ns3:TrackPointExtension>
            <ns3:hr>93</ns3:hr>
          </ns3:TrackPointExtension>
        </extensions>
      </trkpt>
      <trkpt lat="29.6000682748854160308837890625" lon="119.11598495207726955413818359375">
        <ele>106</ele>
        <time>2026-10-06T03:24:27.000Z</time>
        <extensions>
          <ns3:TrackPointExtension>
            <ns3:hr>92</ns3:hr>
          </ns3:TrackPointExtension>
        </extensions>
      </trkpt>
      <trkpt lat="29.60003047250211238861083984375" lon="119.11598076112568378448486328125">
        <ele>106</ele>
        <time>2026-10-06T03:24:33.000Z</time>
        <extensions>
          <ns3:TrackPointExtension>
            <ns3:hr>89</ns3:hr>
          </ns3:TrackPointExtension>
        </extensions>
      </trkpt>
      <trkpt lat="29.5999901555478572845458984375" lon="119.11596366204321384429931640625">
        <ele>106</ele>
        <time>2026-10-06T03:24:40.000Z</time>
        <extensions>
          <ns3:TrackPointExtension>
            <ns3:hr>92</ns3:hr>
          </ns3:TrackPointExtension>
        </extensions>
      </trkpt>
      <trkpt lat="29.59998386912047863006591796875" lon="119.115955531597137451171875">
        <ele>106</ele>
        <time>2026-10-06T03:24:42.000Z</time>
        <extensions>
          <ns3:TrackPointExtension>
            <ns3:hr>92</ns3:hr>
          </ns3:TrackPointExtension>
        </extensions>
      </trkpt>
      <trkpt lat="29.59997154772281646728515625" lon="119.11595226265490055084228515625">
        <ele>105.8000030517578125</ele>
        <time>2026-10-06T03:24:44.000Z</time>
        <extensions>
          <ns3:TrackPointExtension>
            <ns3:hr>98</ns3:hr>
          </ns3:TrackPointExtension>
        </extensions>
      </trkpt>
      <trkpt lat="29.59996911697089672088623046875" lon="119.11594949662685394287109375">
        <ele>105.8000030517578125</ele>
        <time>2026-10-06T03:24:45.000Z</time>
        <extensions>
          <ns3:TrackPointExtension>
            <ns3:hr>104</ns3:hr>
          </ns3:TrackPointExtension>
        </extensions>
      </trkpt>
      <trkpt lat="29.59996392019093036651611328125" lon="119.11594421602785587310791015625">
        <ele>105.59999847412109375</ele>
        <time>2026-10-06T03:24:46.000Z</time>
        <extensions>
          <ns3:TrackPointExtension>
            <ns3:hr>111</ns3:hr>
          </ns3:TrackPointExtension>
        </extensions>
      </trkpt>
      <trkpt lat="29.59995838813483715057373046875" lon="119.11593935452401638031005859375">
        <ele>105.59999847412109375</ele>
        <time>2026-10-06T03:24:47.000Z</time>
        <extensions>
          <ns3:TrackPointExtension>
            <ns3:hr>118</ns3:hr>
          </ns3:TrackPointExtension>
        </extensions>
      </trkpt>
      <trkpt lat="29.5999361760914325714111328125" lon="119.11591890268027782440185546875">
        <ele>106</ele>
        <time>2026-10-06T03:24:51.000Z</time>
        <extensions>
          <ns3:TrackPointExtension>
            <ns3:hr>121</ns3:hr>
          </ns3:TrackPointExtension>
        </extensions>
      </trkpt>
      <trkpt lat="29.5999314822256565093994140625" lon="119.11591337062418460845947265625">
        <ele>106</ele>
        <time>2026-10-06T03:24:52.000Z</time>
        <extensions>
          <ns3:TrackPointExtension>
            <ns3:hr>121</ns3:hr>
          </ns3:TrackPointExtension>
        </extensions>
      </trkpt>
      <trkpt lat="29.59989334456622600555419921875" lon="119.11588017828762531280517578125">
        <ele>106</ele>
        <time>2026-10-06T03:24:57.000Z</time>
        <extensions>
          <ns3:TrackPointExtension>
            <ns3:hr>124</ns3:hr>
          </ns3:TrackPointExtension>
        </extensions>
      </trkpt>
      <trkpt lat="29.599879682064056396484375" lon="119.11587514914572238922119140625">
        <ele>105.8000030517578125</ele>
        <time>2026-10-06T03:24:59.000Z</time>
        <extensions>
          <ns3:TrackPointExtension>
            <ns3:hr>121</ns3:hr>
          </ns3:TrackPointExtension>
        </extensions>
      </trkpt>
      <trkpt lat="29.599875323474407196044921875" lon="119.11587296985089778900146484375">
        <ele>105.8000030517578125</ele>
        <time>2026-10-06T03:25:00.000Z</time>
        <extensions>
          <ns3:TrackPointExtension>
            <ns3:hr>119</ns3:hr>
          </ns3:TrackPointExtension>
        </extensions>
      </trkpt>
      <trkpt lat="29.5998590625822544097900390625" lon="119.1158655099570751190185546875">
        <ele>105.8000030517578125</ele>
        <time>2026-10-06T03:25:02.000Z</time>
        <extensions>
          <ns3:TrackPointExtension>
            <ns3:hr>123</ns3:hr>
          </ns3:TrackPointExtension>
        </extensions>
      </trkpt>
      <trkpt lat="29.59984120912849903106689453125" lon="119.115859977900981903076171875">
        <ele>106</ele>
        <time>2026-10-06T03:25:04.000Z</time>
        <extensions>
          <ns3:TrackPointExtension>
            <ns3:hr>126</ns3:hr>
          </ns3:TrackPointExtension>
        </extensions>
      </trkpt>
      <trkpt lat="29.59980684332549571990966796875" lon="119.1158554516732692718505859375">
        <ele>105.8000030517578125</ele>
        <time>2026-10-06T03:25:08.000Z</time>
        <extensions>
          <ns3:TrackPointExtension>
            <ns3:hr>127</ns3:hr>
          </ns3:TrackPointExtension>
        </extensions>
      </trkpt>
      <trkpt lat="29.59974498488008975982666015625" lon="119.11586240865290164947509765625">
        <ele>105.8000030517578125</ele>
        <time>2026-10-06T03:25:14.000Z</time>
        <extensions>
          <ns3:TrackPointExtension>
            <ns3:hr>124</ns3:hr>
          </ns3:TrackPointExtension>
        </extensions>
      </trkpt>
      <trkpt lat="29.59973610006272792816162109375" lon="119.1158611513674259185791015625">
        <ele>105.8000030517578125</ele>
        <time>2026-10-06T03:25:15.000Z</time>
        <extensions>
          <ns3:TrackPointExtension>
            <ns3:hr>122</ns3:hr>
          </ns3:TrackPointExtension>
        </extensions>
      </trkpt>
      <trkpt lat="29.599718414247035980224609375" lon="119.11586366593837738037109375">
        <ele>105.8000030517578125</ele>
        <time>2026-10-06T03:25:17.000Z</time>
        <extensions>
          <ns3:TrackPointExtension>
            <ns3:hr>118</ns3:hr>
          </ns3:TrackPointExtension>
        </extensions>
      </trkpt>
      <trkpt lat="29.59969117306172847747802734375" lon="119.1158656775951385498046875">
        <ele>105.8000030517578125</ele>
        <time>2026-10-06T03:25:20.000Z</time>
        <extensions>
          <ns3:TrackPointExtension>
            <ns3:hr>115</ns3:hr>
          </ns3:TrackPointExtension>
        </extensions>
      </trkpt>
      <trkpt lat="29.599678181111812591552734375" lon="119.11586559377610683441162109375">
        <ele>105.8000030517578125</ele>
        <time>2026-10-06T03:25:21.000Z</time>
        <extensions>
          <ns3:TrackPointExtension>
            <ns3:hr>120</ns3:hr>
          </ns3:TrackPointExtension>
        </extensions>
      </trkpt>
      <trkpt lat="29.5996689610183238983154296875" lon="119.11586794070899486541748046875">
        <ele>105.59999847412109375</ele>
        <time>2026-10-06T03:25:22.000Z</time>
        <extensions>
          <ns3:TrackPointExtension>
            <ns3:hr>125</ns3:hr>
          </ns3:TrackPointExtension>
        </extensions>
      </trkpt>
      <trkpt lat="29.59966334514319896697998046875" lon="119.11586961708962917327880859375">
        <ele>105.59999847412109375</ele>
        <time>2026-10-06T03:25:23.000Z</time>
        <extensions>
          <ns3:TrackPointExtension>
            <ns3:hr>125</ns3:hr>
          </ns3:TrackPointExtension>
        </extensions>
      </trkpt>
      <trkpt lat="29.59965144284069538116455078125" lon="119.11587280221283435821533203125">
        <ele>105.59999847412109375</ele>
        <time>2026-10-06T03:25:24.000Z</time>
        <extensions>
          <ns3:TrackPointExtension>
            <ns3:hr>127</ns3:hr>
          </ns3:TrackPointExtension>
        </extensions>
      </trkpt>
      <trkpt lat="29.5996384508907794952392578125" lon="119.11587900482118129730224609375">
        <ele>105.59999847412109375</ele>
        <time>2026-10-06T03:25:26.000Z</time>
        <extensions>
          <ns3:TrackPointExtension>
            <ns3:hr>124</ns3:hr>
          </ns3:TrackPointExtension>
        </extensions>
      </trkpt>
      <trkpt lat="29.599625207483768463134765625" lon="119.11588244140148162841796875">
        <ele>105.59999847412109375</ele>
        <time>2026-10-06T03:25:27.000Z</time>
        <extensions>
          <ns3:TrackPointExtension>
            <ns3:hr>117</ns3:hr>
          </ns3:TrackPointExtension>
        </extensions>
      </trkpt>
      <trkpt lat="29.59961506538093090057373046875" lon="119.115886799991130828857421875">
        <ele>105.59999847412109375</ele>
        <time>2026-10-06T03:25:28.000Z</time>
        <extensions>
          <ns3:TrackPointExtension>
            <ns3:hr>110</ns3:hr>
          </ns3:TrackPointExtension>
        </extensions>
      </trkpt>
      <trkpt lat="29.5996079407632350921630859375" lon="119.11589208059012889862060546875">
        <ele>105.59999847412109375</ele>
        <time>2026-10-06T03:25:29.000Z</time>
        <extensions>
          <ns3:TrackPointExtension>
            <ns3:hr>104</ns3:hr>
          </ns3:TrackPointExtension>
        </extensions>
      </trkpt>
      <trkpt lat="29.5995975472033023834228515625" lon="119.115893505513668060302734375">
        <ele>105.59999847412109375</ele>
        <time>2026-10-06T03:25:30.000Z</time>
        <extensions>
          <ns3:TrackPointExtension>
            <ns3:hr>97</ns3:hr>
          </ns3:TrackPointExtension>
        </extensions>
      </trkpt>
      <trkpt lat="29.59958053193986415863037109375" lon="119.1159030608832836151123046875">
        <ele>105.59999847412109375</ele>
        <time>2026-10-06T03:25:32.000Z</time>
        <extensions>
          <ns3:TrackPointExtension>
            <ns3:hr>95</ns3:hr>
          </ns3:TrackPointExtension>
        </extensions>
      </trkpt>
      <trkpt lat="29.59954381920397281646728515625" lon="119.1159258596599102020263671875">
        <ele>105.59999847412109375</ele>
        <time>2026-10-06T03:25:36.000Z</time>
        <extensions>
          <ns3:TrackPointExtension>
            <ns3:hr>91</ns3:hr>
          </ns3:TrackPointExtension>
        </extensions>
      </trkpt>
      <trkpt lat="29.5995137281715869903564453125" lon="119.115943796932697296142578125">
        <ele>105.59999847412109375</ele>
        <time>2026-10-06T03:25:40.000Z</time>
        <extensions>
          <ns3:TrackPointExtension>
            <ns3:hr>93</ns3:hr>
          </ns3:TrackPointExtension>
        </extensions>
      </trkpt>
      <trkpt lat="29.59950207732617855072021484375" lon="119.11595226265490055084228515625">
        <ele>105.59999847412109375</ele>
        <time>2026-10-06T03:25:42.000Z</time>
        <extensions>
          <ns3:TrackPointExtension>
            <ns3:hr>98</ns3:hr>
          </ns3:TrackPointExtension>
        </extensions>
      </trkpt>
      <trkpt lat="29.59949436597526073455810546875" lon="119.11595444194972515106201171875">
        <ele>105.59999847412109375</ele>
        <time>2026-10-06T03:25:43.000Z</time>
        <extensions>
          <ns3:TrackPointExtension>
            <ns3:hr>103</ns3:hr>
          </ns3:TrackPointExtension>
        </extensions>
      </trkpt>
      <trkpt lat="29.59948983974754810333251953125" lon="119.1159573756158351898193359375">
        <ele>105.40000152587890625</ele>
        <time>2026-10-06T03:25:44.000Z</time>
        <extensions>
          <ns3:TrackPointExtension>
            <ns3:hr>108</ns3:hr>
          </ns3:TrackPointExtension>
        </extensions>
      </trkpt>
      <trkpt lat="29.5994815416634082794189453125" lon="119.11595997400581836700439453125">
        <ele>105.40000152587890625</ele>
        <time>2026-10-06T03:25:45.000Z</time>
        <extensions>
          <ns3:TrackPointExtension>
            <ns3:hr>117</ns3:hr>
          </ns3:TrackPointExtension>
        </extensions>
      </trkpt>
      <trkpt lat="29.5994614250957965850830078125" lon="119.11596961319446563720703125">
        <ele>105.59999847412109375</ele>
        <time>2026-10-06T03:25:47.000Z</time>
        <extensions>
          <ns3:TrackPointExtension>
            <ns3:hr>121</ns3:hr>
          </ns3:TrackPointExtension>
        </extensions>
      </trkpt>
      <trkpt lat="29.59944357164204120635986328125" lon="119.11597942002117633819580078125">
        <ele>105.59999847412109375</ele>
        <time>2026-10-06T03:25:49.000Z</time>
        <extensions>
          <ns3:TrackPointExtension>
            <ns3:hr>125</ns3:hr>
          </ns3:TrackPointExtension>
        </extensions>
      </trkpt>
      <trkpt lat="29.599426724016666412353515625" lon="119.11598310805857181549072265625">
        <ele>105.59999847412109375</ele>
        <time>2026-10-06T03:25:51.000Z</time>
        <extensions>
          <ns3:TrackPointExtension>
            <ns3:hr>127</ns3:hr>
          </ns3:TrackPointExtension>
        </extensions>
      </trkpt>
      <trkpt lat="29.59939562715590000152587890625" lon="119.11598511971533298492431640625">
        <ele>105.59999847412109375</ele>
        <time>2026-10-06T03:25:54.000Z</time>
        <extensions>
          <ns3:TrackPointExtension>
            <ns3:hr>123</ns3:hr>
          </ns3:TrackPointExtension>
        </extensions>
      </trkpt>
      <trkpt lat="29.5993846468627452850341796875" lon="119.11598780192434787750244140625">
        <ele>105.40000152587890625</ele>
        <time>2026-10-06T03:25:56.000Z</time>
        <extensions>
          <ns3:TrackPointExtension>
            <ns3:hr>120</ns3:hr>
          </ns3:TrackPointExtension>
        </extensions>
      </trkpt>
      <trkpt lat="29.599363021552562713623046875" lon="119.11599232815206050872802734375">
        <ele>105.40000152587890625</ele>
        <time>2026-10-06T03:25:58.000Z</time>
        <extensions>
          <ns3:TrackPointExtension>
            <ns3:hr>115</ns3:hr>
          </ns3:TrackPointExtension>
        </extensions>
      </trkpt>
      <trkpt lat="29.5993472635746002197265625" lon="119.11600171588361263275146484375">
        <ele>105.59999847412109375</ele>
        <time>2026-10-06T03:26:00.000Z</time>
        <extensions>
          <ns3:TrackPointExtension>
            <ns3:hr>111</ns3:hr>
          </ns3:TrackPointExtension>
        </extensions>
      </trkpt>
      <trkpt lat="29.599338211119174957275390625" lon="119.11601177416741847991943359375">
        <ele>105.40000152587890625</ele>
        <time>2026-10-06T03:26:02.000Z</time>
        <extensions>
          <ns3:TrackPointExtension>
            <ns3:hr>108</ns3:hr>
          </ns3:TrackPointExtension>
        </extensions>
      </trkpt>
      <trkpt lat="29.59933175705373287200927734375" lon="119.11602283827960491180419921875">
        <ele>105.40000152587890625</ele>
        <time>2026-10-06T03:26:04.000Z</time>
        <extensions>
          <ns3:TrackPointExtension>
            <ns3:hr>104</ns3:hr>
          </ns3:TrackPointExtension>
        </extensions>
      </trkpt>
      <trkpt lat="29.5993102155625820159912109375" lon="119.11606659181416034698486328125">
        <ele>105.40000152587890625</ele>
        <time>2026-10-06T03:26:09.000Z</time>
        <extensions>
          <ns3:TrackPointExtension>
            <ns3:hr>105</ns3:hr>
          </ns3:TrackPointExtension>
        </extensions>
      </trkpt>
      <trkpt lat="29.5993011631071567535400390625" lon="119.11608419381082057952880859375">
        <ele>105.40000152587890625</ele>
        <time>2026-10-06T03:26:11.000Z</time>
        <extensions>
          <ns3:TrackPointExtension>
            <ns3:hr>108</ns3:hr>
          </ns3:TrackPointExtension>
        </extensions>
      </trkpt>
      <trkpt lat="29.59928096272051334381103515625" lon="119.11615124903619289398193359375">
        <ele>105.40000152587890625</ele>
        <time>2026-10-06T03:26:18.000Z</time>
        <extensions>
          <ns3:TrackPointExtension>
            <ns3:hr>108</ns3:hr>
          </ns3:TrackPointExtension>
        </extensions>
      </trkpt>
      <trkpt lat="29.59927744232118129730224609375" lon="119.116179160773754119873046875">
        <ele>105.40000152587890625</ele>
        <time>2026-10-06T03:26:21.000Z</time>
        <extensions>
          <ns3:TrackPointExtension>
            <ns3:hr>103</ns3:hr>
          </ns3:TrackPointExtension>
        </extensions>
      </trkpt>
      <trkpt lat="29.5992746762931346893310546875" lon="119.1161927394568920135498046875">
        <ele>105.40000152587890625</ele>
        <time>2026-10-06T03:26:23.000Z</time>
        <extensions>
          <ns3:TrackPointExtension>
            <ns3:hr>99</ns3:hr>
          </ns3:TrackPointExtension>
        </extensions>
      </trkpt>
      <trkpt lat="29.5992748439311981201171875" lon="119.11620874889194965362548828125">
        <ele>105.40000152587890625</ele>
        <time>2026-10-06T03:26:24.000Z</time>
        <extensions>
          <ns3:TrackPointExtension>
            <ns3:hr>99</ns3:hr>
          </ns3:TrackPointExtension>
        </extensions>
      </trkpt>
      <trkpt lat="29.59927643649280071258544921875" lon="119.11623054184019565582275390625">
        <ele>105.40000152587890625</ele>
        <time>2026-10-06T03:26:26.000Z</time>
        <extensions>
          <ns3:TrackPointExtension>
            <ns3:hr>96</ns3:hr>
          </ns3:TrackPointExtension>
        </extensions>
      </trkpt>
      <trkpt lat="29.59927492775022983551025390625" lon="119.11625669337809085845947265625">
        <ele>105.40000152587890625</ele>
        <time>2026-10-06T03:26:28.000Z</time>
        <extensions>
          <ns3:TrackPointExtension>
            <ns3:hr>93</ns3:hr>
          </ns3:TrackPointExtension>
        </extensions>
      </trkpt>
      <trkpt lat="29.59927258081734180450439453125" lon="119.116274379193782806396484375">
        <ele>105.40000152587890625</ele>
        <time>2026-10-06T03:26:30.000Z</time>
        <extensions>
          <ns3:TrackPointExtension>
            <ns3:hr>89</ns3:hr>
          </ns3:TrackPointExtension>
        </extensions>
      </trkpt>
      <trkpt lat="29.59926822222769260406494140625" lon="119.116288125514984130859375">
        <ele>105.40000152587890625</ele>
        <time>2026-10-06T03:26:31.000Z</time>
        <extensions>
          <ns3:TrackPointExtension>
            <ns3:hr>89</ns3:hr>
          </ns3:TrackPointExtension>
        </extensions>
      </trkpt>
      <trkpt lat="29.59926436655223369598388671875" lon="119.1163174621760845184326171875">
        <ele>105.40000152587890625</ele>
        <time>2026-10-06T03:26:34.000Z</time>
        <extensions>
          <ns3:TrackPointExtension>
            <ns3:hr>82</ns3:hr>
          </ns3:TrackPointExtension>
        </extensions>
      </trkpt>
      <trkpt lat="29.59926302544772624969482421875" lon="119.11632844246923923492431640625">
        <ele>105.40000152587890625</ele>
        <time>2026-10-06T03:26:35.000Z</time>
        <extensions>
          <ns3:TrackPointExtension>
            <ns3:hr>82</ns3:hr>
          </ns3:TrackPointExtension>
        </extensions>
      </trkpt>
      <trkpt lat="29.59924793802201747894287109375" lon="119.1163674183189868927001953125">
        <ele>105.59999847412109375</ele>
        <time>2026-10-06T03:26:39.000Z</time>
        <extensions>
          <ns3:TrackPointExtension>
            <ns3:hr>82</ns3:hr>
          </ns3:TrackPointExtension>
        </extensions>
      </trkpt>
      <trkpt lat="29.5992223732173442840576171875" lon="119.116439335048198699951171875">
        <ele>105.59999847412109375</ele>
        <time>2026-10-06T03:26:46.000Z</time>
        <extensions>
          <ns3:TrackPointExtension>
            <ns3:hr>84</ns3:hr>
          </ns3:TrackPointExtension>
        </extensions>
      </trkpt>
      <trkpt lat="29.59917300380766391754150390625" lon="119.1165099106729030609130859375">
        <ele>105.59999847412109375</ele>
        <time>2026-10-06T03:26:54.000Z</time>
        <extensions>
          <ns3:TrackPointExtension>
            <ns3:hr>83</ns3:hr>
          </ns3:TrackPointExtension>
        </extensions>
      </trkpt>
      <trkpt lat="29.59911952726542949676513671875" lon="119.116568751633167266845703125">
        <ele>105.8000030517578125</ele>
        <time>2026-10-06T03:27:02.000Z</time>
        <extensions>
          <ns3:TrackPointExtension>
            <ns3:hr>86</ns3:hr>
          </ns3:TrackPointExtension>
        </extensions>
      </trkpt>
      <trkpt lat="29.599109552800655364990234375" lon="119.11657805554568767547607421875">
        <ele>105.8000030517578125</ele>
        <time>2026-10-06T03:27:03.000Z</time>
        <extensions>
          <ns3:TrackPointExtension>
            <ns3:hr>87</ns3:hr>
          </ns3:TrackPointExtension>
        </extensions>
      </trkpt>
      <trkpt lat="29.599069319665431976318359375" lon="119.11661602556705474853515625">
        <ele>105.59999847412109375</ele>
        <time>2026-10-06T03:27:10.000Z</time>
        <extensions>
          <ns3:TrackPointExtension>
            <ns3:hr>92</ns3:hr>
          </ns3:TrackPointExtension>
        </extensions>
      </trkpt>
      <trkpt lat="29.599058590829372406005859375" lon="119.116626419126987457275390625">
        <ele>105.8000030517578125</ele>
        <time>2026-10-06T03:27:12.000Z</time>
        <extensions>
          <ns3:TrackPointExtension>
            <ns3:hr>95</ns3:hr>
          </ns3:TrackPointExtension>
        </extensions>
      </trkpt>
      <trkpt lat="29.59904258139431476593017578125" lon="119.11662868224084377288818359375">
        <ele>105.59999847412109375</ele>
        <time>2026-10-06T03:27:14.000Z</time>
        <extensions>
          <ns3:TrackPointExtension>
            <ns3:hr>96</ns3:hr>
          </ns3:TrackPointExtension>
        </extensions>
      </trkpt>
      <trkpt lat="29.59903151728212833404541015625" lon="119.11663237027823925018310546875">
        <ele>105.59999847412109375</ele>
        <time>2026-10-06T03:27:15.000Z</time>
        <extensions>
          <ns3:TrackPointExtension>
            <ns3:hr>99</ns3:hr>
          </ns3:TrackPointExtension>
        </extensions>
      </trkpt>
      <trkpt lat="29.5990175195038318634033203125" lon="119.11664091981947422027587890625">
        <ele>105.59999847412109375</ele>
        <time>2026-10-06T03:27:17.000Z</time>
        <extensions>
          <ns3:TrackPointExtension>
            <ns3:hr>102</ns3:hr>
          </ns3:TrackPointExtension>
        </extensions>
      </trkpt>
      <trkpt lat="29.5989843271672725677490234375" lon="119.116666316986083984375">
        <ele>105.40000152587890625</ele>
        <time>2026-10-06T03:27:22.000Z</time>
        <extensions>
          <ns3:TrackPointExtension>
            <ns3:hr>101</ns3:hr>
          </ns3:TrackPointExtension>
        </extensions>
      </trkpt>
      <trkpt lat="29.598975442349910736083984375" lon="119.11668308079242706298828125">
        <ele>105.40000152587890625</ele>
        <time>2026-10-06T03:27:25.000Z</time>
        <extensions>
          <ns3:TrackPointExtension>
            <ns3:hr>104</ns3:hr>
          </ns3:TrackPointExtension>
        </extensions>
      </trkpt>
      <trkpt lat="29.598974101245403289794921875" lon="119.11669104360044002532958984375">
        <ele>105.40000152587890625</ele>
        <time>2026-10-06T03:27:27.000Z</time>
        <extensions>
          <ns3:TrackPointExtension>
            <ns3:hr>107</ns3:hr>
          </ns3:TrackPointExtension>
        </extensions>
      </trkpt>
      <trkpt lat="29.5989704132080078125" lon="119.116716273128986358642578125">
        <ele>105.40000152587890625</ele>
        <time>2026-10-06T03:27:30.000Z</time>
        <extensions>
          <ns3:TrackPointExtension>
            <ns3:hr>107</ns3:hr>
          </ns3:TrackPointExtension>
        </extensions>
      </trkpt>
      <trkpt lat="29.59895993582904338836669921875" lon="119.11675223149359226226806640625">
        <ele>105.40000152587890625</ele>
        <time>2026-10-06T03:27:35.000Z</time>
        <extensions>
          <ns3:TrackPointExtension>
            <ns3:hr>101</ns3:hr>
          </ns3:TrackPointExtension>
        </extensions>
      </trkpt>
      <trkpt lat="29.59895742125809192657470703125" lon="119.1167610324919223785400390625">
        <ele>105.1999969482421875</ele>
        <time>2026-10-06T03:27:36.000Z</time>
        <extensions>
          <ns3:TrackPointExtension>
            <ns3:hr>97</ns3:hr>
          </ns3:TrackPointExtension>
        </extensions>
      </trkpt>
      <trkpt lat="29.59895339794456958770751953125" lon="119.11677469499409198760986328125">
        <ele>105.1999969482421875</ele>
        <time>2026-10-06T03:27:38.000Z</time>
        <extensions>
          <ns3:TrackPointExtension>
            <ns3:hr>100</ns3:hr>
          </ns3:TrackPointExtension>
        </extensions>
      </trkpt>
      <trkpt lat="29.59895457141101360321044921875" lon="119.116781987249851226806640625">
        <ele>105.1999969482421875</ele>
        <time>2026-10-06T03:27:39.000Z</time>
        <extensions>
          <ns3:TrackPointExtension>
            <ns3:hr>121</ns3:hr>
          </ns3:TrackPointExtension>
        </extensions>
      </trkpt>
      <trkpt lat="29.59895633161067962646484375" lon="119.1167937219142913818359375">
        <ele>105.1999969482421875</ele>
        <time>2026-10-06T03:27:40.000Z</time>
        <extensions>
          <ns3:TrackPointExtension>
            <ns3:hr>127</ns3:hr>
          </ns3:TrackPointExtension>
        </extensions>
      </trkpt>
      <trkpt lat="29.5989655517041683197021484375" lon="119.11681124009191989898681640625">
        <ele>105.1999969482421875</ele>
        <time>2026-10-06T03:27:43.000Z</time>
        <extensions>
          <ns3:TrackPointExtension>
            <ns3:hr>126</ns3:hr>
          </ns3:TrackPointExtension>
        </extensions>
      </trkpt>
      <trkpt lat="29.5990329422056674957275390625" lon="119.1168411634862422943115234375">
        <ele>105.1999969482421875</ele>
        <time>2026-10-06T03:27:52.000Z</time>
        <extensions>
          <ns3:TrackPointExtension>
            <ns3:hr>124</ns3:hr>
          </ns3:TrackPointExtension>
        </extensions>
      </trkpt>
      <trkpt lat="29.59907837212085723876953125" lon="119.1168378107249736785888671875">
        <ele>105.40000152587890625</ele>
        <time>2026-10-06T03:27:57.000Z</time>
        <extensions>
          <ns3:TrackPointExtension>
            <ns3:hr>121</ns3:hr>
          </ns3:TrackPointExtension>
        </extensions>
      </trkpt>
      <trkpt lat="29.59910293109714984893798828125" lon="119.11682850681245326995849609375">
        <ele>105.40000152587890625</ele>
        <time>2026-10-06T03:28:00.000Z</time>
        <extensions>
          <ns3:TrackPointExtension>
            <ns3:hr>119</ns3:hr>
          </ns3:TrackPointExtension>
        </extensions>
      </trkpt>
      <trkpt lat="29.5991328544914722442626953125" lon="119.11680017597973346710205078125">
        <ele>105.59999847412109375</ele>
        <time>2026-10-06T03:28:05.000Z</time>
        <extensions>
          <ns3:TrackPointExtension>
            <ns3:hr>116</ns3:hr>
          </ns3:TrackPointExtension>
        </extensions>
      </trkpt>
      <trkpt lat="29.5991472713649272918701171875" lon="119.11678098142147064208984375">
        <ele>105.59999847412109375</ele>
        <time>2026-10-06T03:28:09.000Z</time>
        <extensions>
          <ns3:TrackPointExtension>
            <ns3:hr>122</ns3:hr>
          </ns3:TrackPointExtension>
        </extensions>
      </trkpt>
      <trkpt lat="29.599147103726863861083984375" lon="119.1167777962982654571533203125">
        <ele>105.59999847412109375</ele>
        <time>2026-10-06T03:28:10.000Z</time>
        <extensions>
          <ns3:TrackPointExtension>
            <ns3:hr>122</ns3:hr>
          </ns3:TrackPointExtension>
        </extensions>
      </trkpt>
      <trkpt lat="29.59916294552385807037353515625" lon="119.116728007793426513671875">
        <ele>105.8000030517578125</ele>
        <time>2026-10-06T03:28:17.000Z</time>
        <extensions>
          <ns3:TrackPointExtension>
            <ns3:hr>122</ns3:hr>
          </ns3:TrackPointExtension>
        </extensions>
      </trkpt>
      <trkpt lat="29.59919236600399017333984375" lon="119.1166676580905914306640625">
        <ele>105.8000030517578125</ele>
        <time>2026-10-06T03:28:26.000Z</time>
        <extensions>
          <ns3:TrackPointExtension>
            <ns3:hr>125</ns3:hr>
          </ns3:TrackPointExtension>
        </extensions>
      </trkpt>
      <trkpt lat="29.5991945452988147735595703125" lon="119.11666019819676876068115234375">
        <ele>105.8000030517578125</ele>
        <time>2026-10-06T03:28:27.000Z</time>
        <extensions>
          <ns3:TrackPointExtension>
            <ns3:hr>129</ns3:hr>
          </ns3:TrackPointExtension>
        </extensions>
      </trkpt>
      <trkpt lat="29.59921558387577533721923828125" lon="119.11658509634435176849365234375">
        <ele>106</ele>
        <time>2026-10-06T03:28:35.000Z</time>
        <extensions>
          <ns3:TrackPointExtension>
            <ns3:hr>130</ns3:hr>
          </ns3:TrackPointExtension>
        </extensions>
      </trkpt>
      <trkpt lat="29.59923452697694301605224609375" lon="119.11652977578341960906982421875">
        <ele>106.1999969482421875</ele>
        <time>2026-10-06T03:28:41.000Z</time>
        <extensions>
          <ns3:TrackPointExtension>
            <ns3:hr>127</ns3:hr>
          </ns3:TrackPointExtension>
        </extensions>
      </trkpt>
      <trkpt lat="29.59923637099564075469970703125" lon="119.116521812975406646728515625">
        <ele>106.1999969482421875</ele>
        <time>2026-10-06T03:28:42.000Z</time>
        <extensions>
          <ns3:TrackPointExtension>
            <ns3:hr>127</ns3:hr>
          </ns3:TrackPointExtension>
        </extensions>
      </trkpt>
      <trkpt lat="29.5992733351886272430419921875" lon="119.11645215936005115509033203125">
        <ele>106.40000152587890625</ele>
        <time>2026-10-06T03:28:50.000Z</time>
        <extensions>
          <ns3:TrackPointExtension>
            <ns3:hr>127</ns3:hr>
          </ns3:TrackPointExtension>
        </extensions>
      </trkpt>
      <trkpt lat="29.5993340201675891876220703125" lon="119.11636951379477977752685546875">
        <ele>106.40000152587890625</ele>
        <time>2026-10-06T03:29:01.000Z</time>
        <extensions>
          <ns3:TrackPointExtension>
            <ns3:hr>126</ns3:hr>
          </ns3:TrackPointExtension>
        </extensions>
      </trkpt>
      <trkpt lat="29.5993796177208423614501953125" lon="119.11631939001381397247314453125">
        <ele>106.59999847412109375</ele>
        <time>2026-10-06T03:29:08.000Z</time>
        <extensions>
          <ns3:TrackPointExtension>
            <ns3:hr>129</ns3:hr>
          </ns3:TrackPointExtension>
        </extensions>
      </trkpt>
      <trkpt lat="29.5993888378143310546875" lon="119.1163131035864353179931640625">
        <ele>106.59999847412109375</ele>
        <time>2026-10-06T03:29:09.000Z</time>
        <extensions>
          <ns3:TrackPointExtension>
            <ns3:hr>129</ns3:hr>
          </ns3:TrackPointExtension>
        </extensions>
      </trkpt>
      <trkpt lat="29.59944910369813442230224609375" lon="119.11626138724386692047119140625">
        <ele>106.40000152587890625</ele>
        <time>2026-10-06T03:29:17.000Z</time>
        <extensions>
          <ns3:TrackPointExtension>
            <ns3:hr>129</ns3:hr>
          </ns3:TrackPointExtension>
        </extensions>
      </trkpt>
      <trkpt lat="29.59951297380030155181884765625" lon="119.11620455794036388397216796875">
        <ele>106.59999847412109375</ele>
        <time>2026-10-06T03:29:26.000Z</time>
        <extensions>
          <ns3:TrackPointExtension>
            <ns3:hr>128</ns3:hr>
          </ns3:TrackPointExtension>
        </extensions>
      </trkpt>
      <trkpt lat="29.59952185861766338348388671875" lon="119.11618712358176708221435546875">
        <ele>106.59999847412109375</ele>
        <time>2026-10-06T03:29:29.000Z</time>
        <extensions>
          <ns3:TrackPointExtension>
            <ns3:hr>125</ns3:hr>
          </ns3:TrackPointExtension>
        </extensions>
      </trkpt>
      <trkpt lat="29.5995314978063106536865234375" lon="119.11616616882383823394775390625">
        <ele>106.40000152587890625</ele>
        <time>2026-10-06T03:29:32.000Z</time>
        <extensions>
          <ns3:TrackPointExtension>
            <ns3:hr>121</ns3:hr>
          </ns3:TrackPointExtension>
        </extensions>
      </trkpt>
      <trkpt lat="29.59953225217759609222412109375" lon="119.11616005003452301025390625">
        <ele>106.40000152587890625</ele>
        <time>2026-10-06T03:29:33.000Z</time>
        <extensions>
          <ns3:TrackPointExtension>
            <ns3:hr>120</ns3:hr>
          </ns3:TrackPointExtension>
        </extensions>
      </trkpt>
      <trkpt lat="29.5995511114597320556640625" lon="119.11609509028494358062744140625">
        <ele>106.40000152587890625</ele>
        <time>2026-10-06T03:29:40.000Z</time>
        <extensions>
          <ns3:TrackPointExtension>
            <ns3:hr>119</ns3:hr>
          </ns3:TrackPointExtension>
        </extensions>
      </trkpt>
      <trkpt lat="29.59956075064837932586669921875" lon="119.11606105975806713104248046875">
        <ele>106.59999847412109375</ele>
        <time>2026-10-06T03:29:44.000Z</time>
        <extensions>
          <ns3:TrackPointExtension>
            <ns3:hr>116</ns3:hr>
          </ns3:TrackPointExtension>
        </extensions>
      </trkpt>
      <trkpt lat="29.599576927721500396728515625" lon="119.11603524349629878997802734375">
        <ele>106.59999847412109375</ele>
        <time>2026-10-06T03:29:47.000Z</time>
        <extensions>
          <ns3:TrackPointExtension>
            <ns3:hr>113</ns3:hr>
          </ns3:TrackPointExtension>
        </extensions>
      </trkpt>
      <trkpt lat="29.59958924911916255950927734375" lon="119.1160230897367000579833984375">
        <ele>106.59999847412109375</ele>
        <time>2026-10-06T03:29:49.000Z</time>
        <extensions>
          <ns3:TrackPointExtension>
            <ns3:hr>111</ns3:hr>
          </ns3:TrackPointExtension>
        </extensions>
      </trkpt>
      <trkpt lat="29.59960031323134899139404296875" lon="119.11601294763386249542236328125">
        <ele>106.59999847412109375</ele>
        <time>2026-10-06T03:29:51.000Z</time>
        <extensions>
          <ns3:TrackPointExtension>
            <ns3:hr>116</ns3:hr>
          </ns3:TrackPointExtension>
        </extensions>
      </trkpt>
      <trkpt lat="29.5996039174497127532958984375" lon="119.116006828844547271728515625">
        <ele>106.59999847412109375</ele>
        <time>2026-10-06T03:29:52.000Z</time>
        <extensions>
          <ns3:TrackPointExtension>
            <ns3:hr>121</ns3:hr>
          </ns3:TrackPointExtension>
        </extensions>
      </trkpt>
      <trkpt lat="29.59960903041064739227294921875" lon="119.1160009615123271942138671875">
        <ele>106.59999847412109375</ele>
        <time>2026-10-06T03:29:53.000Z</time>
        <extensions>
          <ns3:TrackPointExtension>
            <ns3:hr>126</ns3:hr>
          </ns3:TrackPointExtension>
        </extensions>
      </trkpt>
      <trkpt lat="29.599656052887439727783203125" lon="119.11597422324120998382568359375">
        <ele>106.59999847412109375</ele>
        <time>2026-10-06T03:30:01.000Z</time>
        <extensions>
          <ns3:TrackPointExtension>
            <ns3:hr>124</ns3:hr>
          </ns3:TrackPointExtension>
        </extensions>
      </trkpt>
      <trkpt lat="29.5996890775859355926513671875" lon="119.11594036035239696502685546875">
        <ele>106.8000030517578125</ele>
        <time>2026-10-06T03:30:09.000Z</time>
        <extensions>
          <ns3:TrackPointExtension>
            <ns3:hr>123</ns3:hr>
          </ns3:TrackPointExtension>
        </extensions>
      </trkpt>
      <trkpt lat="29.59970508702099323272705078125" lon="119.11589442752301692962646484375">
        <ele>106.59999847412109375</ele>
        <time>2026-10-06T03:30:15.000Z</time>
        <extensions>
          <ns3:TrackPointExtension>
            <ns3:hr>121</ns3:hr>
          </ns3:TrackPointExtension>
        </extensions>
      </trkpt>
      <trkpt lat="29.5997279696166515350341796875" lon="119.11582318134605884552001953125">
        <ele>106.59999847412109375</ele>
        <time>2026-10-06T03:30:22.000Z</time>
        <extensions>
          <ns3:TrackPointExtension>
            <ns3:hr>123</ns3:hr>
          </ns3:TrackPointExtension>
        </extensions>
      </trkpt>
      <trkpt lat="29.59975965321063995361328125" lon="119.1157438047230243682861328125">
        <ele>106.8000030517578125</ele>
        <time>2026-10-06T03:30:30.000Z</time>
        <extensions>
          <ns3:TrackPointExtension>
            <ns3:hr>124</ns3:hr>
          </ns3:TrackPointExtension>
        </extensions>
      </trkpt>
      <trkpt lat="29.5997906662523746490478515625" lon="119.1156790964305400848388671875">
        <ele>106.8000030517578125</ele>
        <time>2026-10-06T03:30:37.000Z</time>
        <extensions>
          <ns3:TrackPointExtension>
            <ns3:hr>126</ns3:hr>
          </ns3:TrackPointExtension>
        </extensions>
      </trkpt>
      <trkpt lat="29.5998439751565456390380859375" lon="119.11560776643455028533935546875">
        <ele>107</ele>
        <time>2026-10-06T03:30:47.000Z</time>
        <extensions>
          <ns3:TrackPointExtension>
            <ns3:hr>123</ns3:hr>
          </ns3:TrackPointExtension>
        </extensions>
      </trkpt>
      <trkpt lat="29.59985663183033466339111328125" lon="119.115593433380126953125">
        <ele>107</ele>
        <time>2026-10-06T03:30:50.000Z</time>
        <extensions>
          <ns3:TrackPointExtension>
            <ns3:hr>121</ns3:hr>
          </ns3:TrackPointExtension>
        </extensions>
      </trkpt>
      <trkpt lat="29.59987021051347255706787109375" lon="119.11557842977344989776611328125">
        <ele>107</ele>
        <time>2026-10-06T03:30:53.000Z</time>
        <extensions>
          <ns3:TrackPointExtension>
            <ns3:hr>118</ns3:hr>
          </ns3:TrackPointExtension>
        </extensions>
      </trkpt>
      <trkpt lat="29.59989376366138458251953125" lon="119.1155520267784595489501953125">
        <ele>107</ele>
        <time>2026-10-06T03:30:58.000Z</time>
        <extensions>
          <ns3:TrackPointExtension>
            <ns3:hr>119</ns3:hr>
          </ns3:TrackPointExtension>
        </extensions>
      </trkpt>
      <trkpt lat="29.5999105274677276611328125" lon="119.11552964709699153900146484375">
        <ele>107</ele>
        <time>2026-10-06T03:31:01.000Z</time>
        <extensions>
          <ns3:TrackPointExtension>
            <ns3:hr>122</ns3:hr>
          </ns3:TrackPointExtension>
        </extensions>
      </trkpt>
      <trkpt lat="29.59994514472782611846923828125" lon="119.115489162504673004150390625">
        <ele>107</ele>
        <time>2026-10-06T03:31:06.000Z</time>
        <extensions>
          <ns3:TrackPointExtension>
            <ns3:hr>123</ns3:hr>
          </ns3:TrackPointExtension>
        </extensions>
      </trkpt>
      <trkpt lat="29.59996978752315044403076171875" lon="119.115449599921703338623046875">
        <ele>107</ele>
        <time>2026-10-06T03:31:11.000Z</time>
        <extensions>
          <ns3:TrackPointExtension>
            <ns3:hr>126</ns3:hr>
          </ns3:TrackPointExtension>
        </extensions>
      </trkpt>
      <trkpt lat="29.599987305700778961181640625" lon="119.11542990244925022125244140625">
        <ele>107</ele>
        <time>2026-10-06T03:31:13.000Z</time>
        <extensions>
          <ns3:TrackPointExtension>
            <ns3:hr>128</ns3:hr>
          </ns3:TrackPointExtension>
        </extensions>
      </trkpt>
      <trkpt lat="29.60002963431179523468017578125" lon="119.115389250218868255615234375">
        <ele>107</ele>
        <time>2026-10-06T03:31:19.000Z</time>
        <extensions>
          <ns3:TrackPointExtension>
            <ns3:hr>130</ns3:hr>
          </ns3:TrackPointExtension>
        </extensions>
      </trkpt>
      <trkpt lat="29.60004287771880626678466796875" lon="119.11538095213472843170166015625">
        <ele>106.8000030517578125</ele>
        <time>2026-10-06T03:31:21.000Z</time>
        <extensions>
          <ns3:TrackPointExtension>
            <ns3:hr>131</ns3:hr>
          </ns3:TrackPointExtension>
        </extensions>
      </trkpt>
      <trkpt lat="29.60006517358124256134033203125" lon="119.11536988802254199981689453125">
        <ele>106.8000030517578125</ele>
        <time>2026-10-06T03:31:24.000Z</time>
        <extensions>
          <ns3:TrackPointExtension>
            <ns3:hr>128</ns3:hr>
          </ns3:TrackPointExtension>
        </extensions>
      </trkpt>
      <trkpt lat="29.60007011890411376953125" lon="119.11536351777613162994384765625">
        <ele>106.8000030517578125</ele>
        <time>2026-10-06T03:31:25.000Z</time>
        <extensions>
          <ns3:TrackPointExtension>
            <ns3:hr>125</ns3:hr>
          </ns3:TrackPointExtension>
        </extensions>
      </trkpt>
      <trkpt lat="29.6000833623111248016357421875" lon="119.115351699292659759521484375">
        <ele>107</ele>
        <time>2026-10-06T03:31:27.000Z</time>
        <extensions>
          <ns3:TrackPointExtension>
            <ns3:hr>121</ns3:hr>
          </ns3:TrackPointExtension>
        </extensions>
      </trkpt>
      <trkpt lat="29.60009358823299407958984375" lon="119.1153384558856487274169921875">
        <ele>106.8000030517578125</ele>
        <time>2026-10-06T03:31:29.000Z</time>
        <extensions>
          <ns3:TrackPointExtension>
            <ns3:hr>116</ns3:hr>
          </ns3:TrackPointExtension>
        </extensions>
      </trkpt>
      <trkpt lat="29.6000961028039455413818359375" lon="119.11533351056277751922607421875">
        <ele>106.8000030517578125</ele>
        <time>2026-10-06T03:31:30.000Z</time>
        <extensions>
          <ns3:TrackPointExtension>
            <ns3:hr>114</ns3:hr>
          </ns3:TrackPointExtension>
        </extensions>
      </trkpt>
      <trkpt lat="29.60010708309710025787353515625" lon="119.11531708203256130218505859375">
        <ele>106.8000030517578125</ele>
        <time>2026-10-06T03:31:32.000Z</time>
        <extensions>
          <ns3:TrackPointExtension>
            <ns3:hr>111</ns3:hr>
          </ns3:TrackPointExtension>
        </extensions>
      </trkpt>
      <trkpt lat="29.6001215837895870208740234375" lon="119.11529495380818843841552734375">
        <ele>106.59999847412109375</ele>
        <time>2026-10-06T03:31:35.000Z</time>
        <extensions>
          <ns3:TrackPointExtension>
            <ns3:hr>117</ns3:hr>
          </ns3:TrackPointExtension>
        </extensions>
      </trkpt>
      <trkpt lat="29.6001249365508556365966796875" lon="119.1152888350188732147216796875">
        <ele>106.59999847412109375</ele>
        <time>2026-10-06T03:31:36.000Z</time>
        <extensions>
          <ns3:TrackPointExtension>
            <ns3:hr>122</ns3:hr>
          </ns3:TrackPointExtension>
        </extensions>
      </trkpt>
      <trkpt lat="29.60012954659759998321533203125" lon="119.11527852527797222137451171875">
        <ele>106.59999847412109375</ele>
        <time>2026-10-06T03:31:37.000Z</time>
        <extensions>
          <ns3:TrackPointExtension>
            <ns3:hr>122</ns3:hr>
          </ns3:TrackPointExtension>
        </extensions>
      </trkpt>
      <trkpt lat="29.6001385152339935302734375" lon="119.11527181975543498992919921875">
        <ele>106.59999847412109375</ele>
        <time>2026-10-06T03:31:38.000Z</time>
        <extensions>
          <ns3:TrackPointExtension>
            <ns3:hr>125</ns3:hr>
          </ns3:TrackPointExtension>
        </extensions>
      </trkpt>
      <trkpt lat="29.600154943764209747314453125" lon="119.115242399275302886962890625">
        <ele>106.59999847412109375</ele>
        <time>2026-10-06T03:31:42.000Z</time>
        <extensions>
          <ns3:TrackPointExtension>
            <ns3:hr>128</ns3:hr>
          </ns3:TrackPointExtension>
        </extensions>
      </trkpt>
      <trkpt lat="29.60017849691212177276611328125" lon="119.1152123920619487762451171875">
        <ele>106.40000152587890625</ele>
        <time>2026-10-06T03:31:46.000Z</time>
        <extensions>
          <ns3:TrackPointExtension>
            <ns3:hr>130</ns3:hr>
          </ns3:TrackPointExtension>
        </extensions>
      </trkpt>
      <trkpt lat="29.6002151258289813995361328125" lon="119.11513418890535831451416015625">
        <ele>106.40000152587890625</ele>
        <time>2026-10-06T03:31:55.000Z</time>
        <extensions>
          <ns3:TrackPointExtension>
            <ns3:hr>127</ns3:hr>
          </ns3:TrackPointExtension>
        </extensions>
      </trkpt>
      <trkpt lat="29.60022099316120147705078125" lon="119.115124046802520751953125">
        <ele>106.40000152587890625</ele>
        <time>2026-10-06T03:31:56.000Z</time>
        <extensions>
          <ns3:TrackPointExtension>
            <ns3:hr>127</ns3:hr>
          </ns3:TrackPointExtension>
        </extensions>
      </trkpt>
      <trkpt lat="29.60027321241796016693115234375" lon="119.1150538064539432525634765625">
        <ele>106.40000152587890625</ele>
        <time>2026-10-06T03:32:05.000Z</time>
        <extensions>
          <ns3:TrackPointExtension>
            <ns3:hr>127</ns3:hr>
          </ns3:TrackPointExtension>
        </extensions>
      </trkpt>
      <trkpt lat="29.6003385074436664581298828125" lon="119.1149753518402576446533203125">
        <ele>106.1999969482421875</ele>
        <time>2026-10-06T03:32:14.000Z</time>
        <extensions>
          <ns3:TrackPointExtension>
            <ns3:hr>127</ns3:hr>
          </ns3:TrackPointExtension>
        </extensions>
      </trkpt>
      <trkpt lat="29.60037463344633579254150390625" lon="119.11492648534476757049560546875">
        <ele>106.1999969482421875</ele>
        <time>2026-10-06T03:32:19.000Z</time>
        <extensions>
          <ns3:TrackPointExtension>
            <ns3:hr>130</ns3:hr>
          </ns3:TrackPointExtension>
        </extensions>
      </trkpt>
      <trkpt lat="29.60041251964867115020751953125" lon="119.11488658748567104339599609375">
        <ele>106.1999969482421875</ele>
        <time>2026-10-06T03:32:25.000Z</time>
        <extensions>
          <ns3:TrackPointExtension>
            <ns3:hr>131</ns3:hr>
          </ns3:TrackPointExtension>
        </extensions>
      </trkpt>
      <trkpt lat="29.60042241029441356658935546875" lon="119.11487233825027942657470703125">
        <ele>106.1999969482421875</ele>
        <time>2026-10-06T03:32:27.000Z</time>
        <extensions>
          <ns3:TrackPointExtension>
            <ns3:hr>128</ns3:hr>
          </ns3:TrackPointExtension>
        </extensions>
      </trkpt>
      <trkpt lat="29.600423835217952728271484375" lon="119.11486856639385223388671875">
        <ele>106.1999969482421875</ele>
        <time>2026-10-06T03:32:28.000Z</time>
        <extensions>
          <ns3:TrackPointExtension>
            <ns3:hr>121</ns3:hr>
          </ns3:TrackPointExtension>
        </extensions>
      </trkpt>
      <trkpt lat="29.60043984465301036834716796875" lon="119.1148449294269084930419921875">
        <ele>106</ele>
        <time>2026-10-06T03:32:32.000Z</time>
        <extensions>
          <ns3:TrackPointExtension>
            <ns3:hr>118</ns3:hr>
          </ns3:TrackPointExtension>
        </extensions>
      </trkpt>
      <trkpt lat="29.60046096704900264739990234375" lon="119.1148144192993640899658203125">
        <ele>106</ele>
        <time>2026-10-06T03:32:36.000Z</time>
        <extensions>
          <ns3:TrackPointExtension>
            <ns3:hr>120</ns3:hr>
          </ns3:TrackPointExtension>
        </extensions>
      </trkpt>
      <trkpt lat="29.60046700201928615570068359375" lon="119.1148070432245731353759765625">
        <ele>106</ele>
        <time>2026-10-06T03:32:37.000Z</time>
        <extensions>
          <ns3:TrackPointExtension>
            <ns3:hr>126</ns3:hr>
          </ns3:TrackPointExtension>
        </extensions>
      </trkpt>
      <trkpt lat="29.600478820502758026123046875" lon="119.11478600464761257171630859375">
        <ele>106</ele>
        <time>2026-10-06T03:32:40.000Z</time>
        <extensions>
          <ns3:TrackPointExtension>
            <ns3:hr>131</ns3:hr>
          </ns3:TrackPointExtension>
        </extensions>
      </trkpt>
      <trkpt lat="29.60049516521394252777099609375" lon="119.1147686541080474853515625">
        <ele>106</ele>
        <time>2026-10-06T03:32:43.000Z</time>
        <extensions>
          <ns3:TrackPointExtension>
            <ns3:hr>129</ns3:hr>
          </ns3:TrackPointExtension>
        </extensions>
      </trkpt>
      <trkpt lat="29.6005255915224552154541015625" lon="119.11473940126597881317138671875">
        <ele>105.8000030517578125</ele>
        <time>2026-10-06T03:32:48.000Z</time>
        <extensions>
          <ns3:TrackPointExtension>
            <ns3:hr>129</ns3:hr>
          </ns3:TrackPointExtension>
        </extensions>
      </trkpt>
      <trkpt lat="29.600571356713771820068359375" lon="119.1146600246429443359375">
        <ele>105.8000030517578125</ele>
        <time>2026-10-06T03:32:57.000Z</time>
        <extensions>
          <ns3:TrackPointExtension>
            <ns3:hr>131</ns3:hr>
          </ns3:TrackPointExtension>
        </extensions>
      </trkpt>
      <trkpt lat="29.60065056569874286651611328125" lon="119.1145418398082256317138671875">
        <ele>105.8000030517578125</ele>
        <time>2026-10-06T03:33:09.000Z</time>
        <extensions>
          <ns3:TrackPointExtension>
            <ns3:hr>131</ns3:hr>
          </ns3:TrackPointExtension>
        </extensions>
      </trkpt>
      <trkpt lat="29.60072457790374755859375" lon="119.11446623504161834716796875">
        <ele>105.8000030517578125</ele>
        <time>2026-10-06T03:33:19.000Z</time>
        <extensions>
          <ns3:TrackPointExtension>
            <ns3:hr>127</ns3:hr>
          </ns3:TrackPointExtension>
        </extensions>
      </trkpt>
      <trkpt lat="29.600732959806919097900390625" lon="119.114460535347461700439453125">
        <ele>105.8000030517578125</ele>
        <time>2026-10-06T03:33:20.000Z</time>
        <extensions>
          <ns3:TrackPointExtension>
            <ns3:hr>118</ns3:hr>
          </ns3:TrackPointExtension>
        </extensions>
      </trkpt>
      <trkpt lat="29.60073907859623432159423828125" lon="119.1144546680152416229248046875">
        <ele>105.8000030517578125</ele>
        <time>2026-10-06T03:33:21.000Z</time>
        <extensions>
          <ns3:TrackPointExtension>
            <ns3:hr>113</ns3:hr>
          </ns3:TrackPointExtension>
        </extensions>
      </trkpt>
      <trkpt lat="29.60074310190975666046142578125" lon="119.114449806511402130126953125">
        <ele>105.8000030517578125</ele>
        <time>2026-10-06T03:33:22.000Z</time>
        <extensions>
          <ns3:TrackPointExtension>
            <ns3:hr>113</ns3:hr>
          </ns3:TrackPointExtension>
        </extensions>
      </trkpt>
      <trkpt lat="29.60077260620892047882080078125" lon="119.1144251637160778045654296875">
        <ele>105.8000030517578125</ele>
        <time>2026-10-06T03:33:26.000Z</time>
        <extensions>
          <ns3:TrackPointExtension>
            <ns3:hr>116</ns3:hr>
          </ns3:TrackPointExtension>
        </extensions>
      </trkpt>
      <trkpt lat="29.60077612660825252532958984375" lon="119.11441938020288944244384765625">
        <ele>105.8000030517578125</ele>
        <time>2026-10-06T03:33:27.000Z</time>
        <extensions>
          <ns3:TrackPointExtension>
            <ns3:hr>119</ns3:hr>
          </ns3:TrackPointExtension>
        </extensions>
      </trkpt>
      <trkpt lat="29.60078383795917034149169921875" lon="119.11440362222492694854736328125">
        <ele>105.8000030517578125</ele>
        <time>2026-10-06T03:33:29.000Z</time>
        <extensions>
          <ns3:TrackPointExtension>
            <ns3:hr>122</ns3:hr>
          </ns3:TrackPointExtension>
        </extensions>
      </trkpt>
      <trkpt lat="29.6007948182523250579833984375" lon="119.1143788956105709075927734375">
        <ele>105.8000030517578125</ele>
        <time>2026-10-06T03:33:32.000Z</time>
        <extensions>
          <ns3:TrackPointExtension>
            <ns3:hr>125</ns3:hr>
          </ns3:TrackPointExtension>
        </extensions>
      </trkpt>
      <trkpt lat="29.60079808719456195831298828125" lon="119.11437059752643108367919921875">
        <ele>105.8000030517578125</ele>
        <time>2026-10-06T03:33:33.000Z</time>
        <extensions>
          <ns3:TrackPointExtension>
            <ns3:hr>125</ns3:hr>
          </ns3:TrackPointExtension>
        </extensions>
      </trkpt>
      <trkpt lat="29.6008358895778656005859375" lon="119.114286191761493682861328125">
        <ele>105.8000030517578125</ele>
        <time>2026-10-06T03:33:41.000Z</time>
        <extensions>
          <ns3:TrackPointExtension>
            <ns3:hr>126</ns3:hr>
          </ns3:TrackPointExtension>
        </extensions>
      </trkpt>
      <trkpt lat="29.60088307969272136688232421875" lon="119.11422081291675567626953125">
        <ele>105.8000030517578125</ele>
        <time>2026-10-06T03:33:49.000Z</time>
        <extensions>
          <ns3:TrackPointExtension>
            <ns3:hr>125</ns3:hr>
          </ns3:TrackPointExtension>
        </extensions>
      </trkpt>
      <trkpt lat="29.60089498199522495269775390625" lon="119.1142065636813640594482421875">
        <ele>105.8000030517578125</ele>
        <time>2026-10-06T03:33:51.000Z</time>
        <extensions>
          <ns3:TrackPointExtension>
            <ns3:hr>120</ns3:hr>
          </ns3:TrackPointExtension>
        </extensions>
      </trkpt>
      <trkpt lat="29.60093387402594089508056640625" lon="119.1141673363745212554931640625">
        <ele>105.8000030517578125</ele>
        <time>2026-10-06T03:33:58.000Z</time>
        <extensions>
          <ns3:TrackPointExtension>
            <ns3:hr>124</ns3:hr>
          </ns3:TrackPointExtension>
        </extensions>
      </trkpt>
      <trkpt lat="29.60094074718654155731201171875" lon="119.114152751863002777099609375">
        <ele>105.8000030517578125</ele>
        <time>2026-10-06T03:34:00.000Z</time>
        <extensions>
          <ns3:TrackPointExtension>
            <ns3:hr>127</ns3:hr>
          </ns3:TrackPointExtension>
        </extensions>
      </trkpt>
      <trkpt lat="29.60095189511775970458984375" lon="119.11413607187569141387939453125">
        <ele>105.8000030517578125</ele>
        <time>2026-10-06T03:34:02.000Z</time>
        <extensions>
          <ns3:TrackPointExtension>
            <ns3:hr>131</ns3:hr>
          </ns3:TrackPointExtension>
        </extensions>
      </trkpt>
      <trkpt lat="29.60096874274313449859619140625" lon="119.1140982694923877716064453125">
        <ele>105.8000030517578125</ele>
        <time>2026-10-06T03:34:06.000Z</time>
        <extensions>
          <ns3:TrackPointExtension>
            <ns3:hr>132</ns3:hr>
          </ns3:TrackPointExtension>
        </extensions>
      </trkpt>
      <trkpt lat="29.6009969897568225860595703125" lon="119.1140181384980678558349609375">
        <ele>105.59999847412109375</ele>
        <time>2026-10-06T03:34:13.000Z</time>
        <extensions>
          <ns3:TrackPointExtension>
            <ns3:hr>133</ns3:hr>
          </ns3:TrackPointExtension>
        </extensions>
      </trkpt>
      <trkpt lat="29.60102573968470096588134765625" lon="119.1139326430857181549072265625">
        <ele>105.8000030517578125</ele>
        <time>2026-10-06T03:34:21.000Z</time>
        <extensions>
          <ns3:TrackPointExtension>
            <ns3:hr>133</ns3:hr>
          </ns3:TrackPointExtension>
        </extensions>
      </trkpt>
      <trkpt lat="29.6010573394596576690673828125" lon="119.1138231754302978515625">
        <ele>105.8000030517578125</ele>
        <time>2026-10-06T03:34:31.000Z</time>
        <extensions>
          <ns3:TrackPointExtension>
            <ns3:hr>132</ns3:hr>
          </ns3:TrackPointExtension>
        </extensions>
      </trkpt>
      <trkpt lat="29.60106614045798778533935546875" lon="119.11379543133080005645751953125">
        <ele>105.59999847412109375</ele>
        <time>2026-10-06T03:34:34.000Z</time>
        <extensions>
          <ns3:TrackPointExtension>
            <ns3:hr>127</ns3:hr>
          </ns3:TrackPointExtension>
        </extensions>
      </trkpt>
      <trkpt lat="29.60107234306633472442626953125" lon="119.1137824393808841705322265625">
        <ele>105.59999847412109375</ele>
        <time>2026-10-06T03:34:36.000Z</time>
        <extensions>
          <ns3:TrackPointExtension>
            <ns3:hr>134</ns3:hr>
          </ns3:TrackPointExtension>
        </extensions>
      </trkpt>
      <trkpt lat="29.60109002888202667236328125" lon="119.1137455590069293975830078125">
        <ele>105.8000030517578125</ele>
        <time>2026-10-06T03:34:40.000Z</time>
        <extensions>
          <ns3:TrackPointExtension>
            <ns3:hr>137</ns3:hr>
          </ns3:TrackPointExtension>
        </extensions>
      </trkpt>
      <trkpt lat="29.60110075771808624267578125" lon="119.1137328185141086578369140625">
        <ele>105.8000030517578125</ele>
        <time>2026-10-06T03:34:42.000Z</time>
        <extensions>
          <ns3:TrackPointExtension>
            <ns3:hr>137</ns3:hr>
          </ns3:TrackPointExtension>
        </extensions>
      </trkpt>
      <trkpt lat="29.60112623870372772216796875" lon="119.1136376000940799713134765625">
        <ele>105.59999847412109375</ele>
        <time>2026-10-06T03:34:52.000Z</time>
        <extensions>
          <ns3:TrackPointExtension>
            <ns3:hr>136</ns3:hr>
          </ns3:TrackPointExtension>
        </extensions>
      </trkpt>
      <trkpt lat="29.6011361293494701385498046875" lon="119.11359745077788829803466796875">
        <ele>105.59999847412109375</ele>
        <time>2026-10-06T03:34:56.000Z</time>
        <extensions>
          <ns3:TrackPointExtension>
            <ns3:hr>133</ns3:hr>
          </ns3:TrackPointExtension>
        </extensions>
      </trkpt>
      <trkpt lat="29.601146019995212554931640625" lon="119.11356543190777301788330078125">
        <ele>105.59999847412109375</ele>
        <time>2026-10-06T03:35:00.000Z</time>
        <extensions>
          <ns3:TrackPointExtension>
            <ns3:hr>130</ns3:hr>
          </ns3:TrackPointExtension>
        </extensions>
      </trkpt>
      <trkpt lat="29.60115616209805011749267578125" lon="119.1135480813682079315185546875">
        <ele>105.59999847412109375</ele>
        <time>2026-10-06T03:35:03.000Z</time>
        <extensions>
          <ns3:TrackPointExtension>
            <ns3:hr>126</ns3:hr>
          </ns3:TrackPointExtension>
        </extensions>
      </trkpt>
      <trkpt lat="29.60117041133344173431396484375" lon="119.1135323233902454376220703125">
        <ele>105.59999847412109375</ele>
        <time>2026-10-06T03:35:06.000Z</time>
        <extensions>
          <ns3:TrackPointExtension>
            <ns3:hr>123</ns3:hr>
          </ns3:TrackPointExtension>
        </extensions>
      </trkpt>
      <trkpt lat="29.60120175965130329132080078125" lon="119.1134552098810672760009765625">
        <ele>105.40000152587890625</ele>
        <time>2026-10-06T03:35:15.000Z</time>
        <extensions>
          <ns3:TrackPointExtension>
            <ns3:hr>121</ns3:hr>
          </ns3:TrackPointExtension>
        </extensions>
      </trkpt>
      <trkpt lat="29.60123511962592601776123046875" lon="119.11336627788841724395751953125">
        <ele>105.40000152587890625</ele>
        <time>2026-10-06T03:35:23.000Z</time>
        <extensions>
          <ns3:TrackPointExtension>
            <ns3:hr>124</ns3:hr>
          </ns3:TrackPointExtension>
        </extensions>
      </trkpt>
      <trkpt lat="29.60124316625297069549560546875" lon="119.1133546270430088043212890625">
        <ele>105.40000152587890625</ele>
        <time>2026-10-06T03:35:24.000Z</time>
        <extensions>
          <ns3:TrackPointExtension>
            <ns3:hr>126</ns3:hr>
          </ns3:TrackPointExtension>
        </extensions>
      </trkpt>
      <trkpt lat="29.60125909186899662017822265625" lon="119.113320596516132354736328125">
        <ele>105.40000152587890625</ele>
        <time>2026-10-06T03:35:27.000Z</time>
        <extensions>
          <ns3:TrackPointExtension>
            <ns3:hr>130</ns3:hr>
          </ns3:TrackPointExtension>
        </extensions>
      </trkpt>
      <trkpt lat="29.601279795169830322265625" lon="119.11327122710645198822021484375">
        <ele>105.59999847412109375</ele>
        <time>2026-10-06T03:35:32.000Z</time>
        <extensions>
          <ns3:TrackPointExtension>
            <ns3:hr>132</ns3:hr>
          </ns3:TrackPointExtension>
        </extensions>
      </trkpt>
      <trkpt lat="29.6012853272259235382080078125" lon="119.11319428123533725738525390625">
        <ele>105.1999969482421875</ele>
        <time>2026-10-06T03:35:38.000Z</time>
        <extensions>
          <ns3:TrackPointExtension>
            <ns3:hr>132</ns3:hr>
          </ns3:TrackPointExtension>
        </extensions>
      </trkpt>
      <trkpt lat="29.601322375237941741943359375" lon="119.11311842501163482666015625">
        <ele>105.59999847412109375</ele>
        <time>2026-10-06T03:35:46.000Z</time>
        <extensions>
          <ns3:TrackPointExtension>
            <ns3:hr>131</ns3:hr>
          </ns3:TrackPointExtension>
        </extensions>
      </trkpt>
      <trkpt lat="29.60135766305029392242431640625" lon="119.11299504339694976806640625">
        <ele>105.40000152587890625</ele>
        <time>2026-10-06T03:35:57.000Z</time>
        <extensions>
          <ns3:TrackPointExtension>
            <ns3:hr>129</ns3:hr>
          </ns3:TrackPointExtension>
        </extensions>
      </trkpt>
      <trkpt lat="29.60136688314378261566162109375" lon="119.1129710711538791656494140625">
        <ele>105.59999847412109375</ele>
        <time>2026-10-06T03:36:00.000Z</time>
        <extensions>
          <ns3:TrackPointExtension>
            <ns3:hr>125</ns3:hr>
          </ns3:TrackPointExtension>
        </extensions>
      </trkpt>
      <trkpt lat="29.60137727670371532440185546875" lon="119.11294198594987392425537109375">
        <ele>105.59999847412109375</ele>
        <time>2026-10-06T03:36:03.000Z</time>
        <extensions>
          <ns3:TrackPointExtension>
            <ns3:hr>122</ns3:hr>
          </ns3:TrackPointExtension>
        </extensions>
      </trkpt>
      <trkpt lat="29.60138565860688686370849609375" lon="119.11292656324803829193115234375">
        <ele>105.59999847412109375</ele>
        <time>2026-10-06T03:36:05.000Z</time>
        <extensions>
          <ns3:TrackPointExtension>
            <ns3:hr>118</ns3:hr>
          </ns3:TrackPointExtension>
        </extensions>
      </trkpt>
      <trkpt lat="29.60138783790171146392822265625" lon="119.112916253507137298583984375">
        <ele>105.59999847412109375</ele>
        <time>2026-10-06T03:36:06.000Z</time>
        <extensions>
          <ns3:TrackPointExtension>
            <ns3:hr>118</ns3:hr>
          </ns3:TrackPointExtension>
        </extensions>
      </trkpt>
      <trkpt lat="29.601393453776836395263671875" lon="119.11290041171014308929443359375">
        <ele>105.40000152587890625</ele>
        <time>2026-10-06T03:36:08.000Z</time>
        <extensions>
          <ns3:TrackPointExtension>
            <ns3:hr>122</ns3:hr>
          </ns3:TrackPointExtension>
        </extensions>
      </trkpt>
      <trkpt lat="29.6014127321541309356689453125" lon="119.11283838562667369842529296875">
        <ele>105.40000152587890625</ele>
        <time>2026-10-06T03:36:15.000Z</time>
        <extensions>
          <ns3:TrackPointExtension>
            <ns3:hr>122</ns3:hr>
          </ns3:TrackPointExtension>
        </extensions>
      </trkpt>
      <trkpt lat="29.60144164972007274627685546875" lon="119.112742580473423004150390625">
        <ele>105.40000152587890625</ele>
        <time>2026-10-06T03:36:23.000Z</time>
        <extensions>
          <ns3:TrackPointExtension>
            <ns3:hr>118</ns3:hr>
          </ns3:TrackPointExtension>
        </extensions>
      </trkpt>
      <trkpt lat="29.601443074643611907958984375" lon="119.11272053606808185577392578125">
        <ele>105.40000152587890625</ele>
        <time>2026-10-06T03:36:25.000Z</time>
        <extensions>
          <ns3:TrackPointExtension>
            <ns3:hr>114</ns3:hr>
          </ns3:TrackPointExtension>
        </extensions>
      </trkpt>
      <trkpt lat="29.6014472655951976776123046875" lon="119.11270712502300739288330078125">
        <ele>105.40000152587890625</ele>
        <time>2026-10-06T03:36:26.000Z</time>
        <extensions>
          <ns3:TrackPointExtension>
            <ns3:hr>111</ns3:hr>
          </ns3:TrackPointExtension>
        </extensions>
      </trkpt>
      <trkpt lat="29.60144852288067340850830078125" lon="119.11269706673920154571533203125">
        <ele>105.40000152587890625</ele>
        <time>2026-10-06T03:36:27.000Z</time>
        <extensions>
          <ns3:TrackPointExtension>
            <ns3:hr>110</ns3:hr>
          </ns3:TrackPointExtension>
        </extensions>
      </trkpt>
      <trkpt lat="29.6014563180506229400634765625" lon="119.1126599349081516265869140625">
        <ele>105.40000152587890625</ele>
        <time>2026-10-06T03:36:30.000Z</time>
        <extensions>
          <ns3:TrackPointExtension>
            <ns3:hr>113</ns3:hr>
          </ns3:TrackPointExtension>
        </extensions>
      </trkpt>
      <trkpt lat="29.60146159864962100982666015625" lon="119.112639985978603363037109375">
        <ele>105.40000152587890625</ele>
        <time>2026-10-06T03:36:32.000Z</time>
        <extensions>
          <ns3:TrackPointExtension>
            <ns3:hr>117</ns3:hr>
          </ns3:TrackPointExtension>
        </extensions>
      </trkpt>
      <trkpt lat="29.60146461613476276397705078125" lon="119.11260235123336315155029296875">
        <ele>105.40000152587890625</ele>
        <time>2026-10-06T03:36:35.000Z</time>
        <extensions>
          <ns3:TrackPointExtension>
            <ns3:hr>118</ns3:hr>
          </ns3:TrackPointExtension>
        </extensions>
      </trkpt>
      <trkpt lat="29.6014771051704883575439453125" lon="119.11252708174288272857666015625">
        <ele>105.40000152587890625</ele>
        <time>2026-10-06T03:36:41.000Z</time>
        <extensions>
          <ns3:TrackPointExtension>
            <ns3:hr>121</ns3:hr>
          </ns3:TrackPointExtension>
        </extensions>
      </trkpt>
      <trkpt lat="29.60148070938885211944580078125" lon="119.1125021874904632568359375">
        <ele>105.40000152587890625</ele>
        <time>2026-10-06T03:36:43.000Z</time>
        <extensions>
          <ns3:TrackPointExtension>
            <ns3:hr>120</ns3:hr>
          </ns3:TrackPointExtension>
        </extensions>
      </trkpt>
      <trkpt lat="29.601510129868984222412109375" lon="119.1123853437602519989013671875">
        <ele>105.59999847412109375</ele>
        <time>2026-10-06T03:36:52.000Z</time>
        <extensions>
          <ns3:TrackPointExtension>
            <ns3:hr>124</ns3:hr>
          </ns3:TrackPointExtension>
        </extensions>
      </trkpt>
      <trkpt lat="29.601513482630252838134765625" lon="119.112377464771270751953125">
        <ele>105.59999847412109375</ele>
        <time>2026-10-06T03:36:53.000Z</time>
        <extensions>
          <ns3:TrackPointExtension>
            <ns3:hr>124</ns3:hr>
          </ns3:TrackPointExtension>
        </extensions>
      </trkpt>
      <trkpt lat="29.60151222534477710723876953125" lon="119.1123789735138416290283203125">
        <ele>105.40000152587890625</ele>
        <time>2026-10-06T03:36:57.000Z</time>
        <extensions>
          <ns3:TrackPointExtension>
            <ns3:hr>121</ns3:hr>
          </ns3:TrackPointExtension>
        </extensions>
      </trkpt>
      <trkpt lat="29.6015131473541259765625" lon="119.1123788058757781982421875">
        <ele>105.40000152587890625</ele>
        <time>2026-10-06T03:36:59.000Z</time>
        <extensions>
          <ns3:TrackPointExtension>
            <ns3:hr>125</ns3:hr>
          </ns3:TrackPointExtension>
        </extensions>
      </trkpt>
    </trkseg>
  </trk>
</gpx>
